GOMX-1                  
1 39430U 13066Q   26157.83560622  .00001996  00000+0  30356-3 0  9992
2 39430  97.6490 358.9510 0130117 110.4403 251.0830 14.69419907668394
CUBEBUG-2 (LO-74)       
1 39440U 13066AA  26156.80918561  .00005560  00000+0  51354-3 0  9990
2 39440  97.8908 105.7402 0059434  65.9901 294.7524 14.93668030675299
NEE-02 KRYSAOR          
1 39441U 13066AB  26157.10320968  .00002852  00000+0  31498-3 0  9991
2 39441  97.8890  96.3978 0067671 105.6781 255.1914 14.86571757674556
FUNCUBE-1 (AO-73)       
1 39444U 13066AE  26157.18462751  .00009267  00000+0  57636-3 0  9998
2 39444  97.8278 128.4023 0034656 239.5624 120.2179 15.09358417678008
UWE-3                   
1 39446U 13066AG  26157.65461373  .00005074  00000+0  43622-3 0  9993
2 39446  97.8693 113.6587 0049031 356.7161   3.3731 14.96941234676006
SMDC ONE 2.4            
1 39469U 13072H   26157.66438965  .00012602  00000+0  48300-3 0  9990
2 39469 120.4937 311.4624 0143809   7.7809 352.5455 15.17983621116231
COSMOS 2488 (RODNIK-S 7)
1 39483U 13076A   26157.81484495  .00000022  00000+0  89641-4 0  9993
2 39483  82.4830 175.1575 0020702 116.6749 243.6454 12.42905498564603
COSMOS 2489 (RODNIK-S 8)
1 39484U 13076B   26157.87032374  .00000043  00000+0  23894-3 0  9995
2 39484  82.4867 176.4983 0022540 116.6416 243.6975 12.42879559564666
COSMOS 2490 (RODNIK-S 9)
1 39485U 13076C   26157.84219671  .00000073  00000+0  45505-3 0  9996
2 39485  82.4813 174.5877 0022492 131.6888 228.6120 12.42877955564590
KAZEOSAT 1              
1 39731U 14024A   26157.82214074  .00000168  00000+0  64036-4 0  9990
2 39731  98.3203 230.5268 0001504  75.2761 284.8596 14.42075882637069
COSMOS 2496 (RODNIK-S *)
1 39761U 14028A   26157.79974131  .00000093  00000+0  60135-3 0  9992
2 39761  82.4446 115.2372 0021202 100.3182 260.0289 12.42878380546228
COSMOS 2497 (RODNIK-S *)
1 39762U 14028B   26157.85565072  .00000114  00000+0  74770-3 0  9994
2 39762  82.4493 116.8880 0021802  95.4253 264.9314 12.42894053546239
COSMOS 2498 (RODNIK-S *)
1 39763U 14028C   26157.83396753  .00000083  00000+0  52558-3 0  9996
2 39763  82.4454 115.3931 0022521  95.1126 265.2525 12.42980002546264
HODOYOSHI-4             
1 40011U 14033B   26157.81351478  .00002174  00000+0  24076-3 0  9990
2 40011  97.5455 343.1370 0023371 344.1705  15.8779 14.88107573647260
UNISAT-6                
1 40012U 14033C   26157.71175127  .00004181  00000+0  45042-3 0  9991
2 40012  97.7873 310.6096 0046479 102.8244 257.8172 14.88189807644602
DEIMOS-2                
1 40013U 14033D   26157.79987355  .00002110  00000+0  20463-3 0  9994
2 40013  97.5835  32.6528 0001999  61.3078 298.8343 14.93696937636173
BUGSAT-1 (TITA)         
1 40014U 14033E   26157.86837142  .00007766  00000+0  41048-3 0  9995
2 40014  98.0418 249.8146 0027250 214.1596 145.7883 15.15474218654277
SAUDISAT 4              
1 40016U 14033G   26157.63620825  .00000873  00000+0  12140-3 0  9993
2 40016  97.7572 304.1370 0046185 107.2479 253.3795 14.79530218644516
APRIZESAT 9             
1 40018U 14033J   26156.87254485  .00000758  00000+0  11882-3 0  9999
2 40018  97.9048 290.3486 0064978 235.9898 123.5128 14.74199706641890
BRITE-CA1 (TORONTO)     
1 40020U 14033L   26157.64225058  .00000796  00000+0  12740-3 0  9998
2 40020  97.9728 286.7655 0077539 311.3532  48.1023 14.72662532640666
DUCHIFAT-1              
1 40021U 14033M   26157.14150127  .00131825  00000+0  14668-2 0  9996
2 40021  98.0474 214.7704 0004492 136.7008 223.4602 15.62418709654029
NANOSATC-BR1            
1 40024U 14033Q   26157.61940454  .00020300  00000+0  67700-3 0  9992
2 40024  98.0730 189.0736 0003290 194.1047 166.0100 15.31117398652368
