OBJECT_NAME,OBJECT_ID,EPOCH,MEAN_MOTION,ECCENTRICITY,INCLINATION,RA_OF_ASC_NODE,ARG_OF_PERICENTER,MEAN_ANOMALY,EPHEMERIS_TYPE,CLASSIFICATION_TYPE,NORAD_CAT_ID,ELEMENT_SET_NO,REV_AT_EPOCH,BSTAR,MEAN_MOTION_DOT,MEAN_MOTION_DDOT
GOMX-1,2013-066Q,2026-06-06T20:03:16.377408,14.69419907,.0130117,97.6490,358.9510,110.4403,251.0830,0,U,39430,999,66839,.30356E-3,.1996E-4,0
CUBEBUG-2 (LO-74),2013-066AA,2026-06-05T19:25:13.636704,14.93668030,.00594347,97.8908,105.7402,65.9901,294.7524,0,U,39440,999,67529,.51354385E-3,.556E-4,0
NEE-02 KRYSAOR,2013-066AB,2026-06-06T02:28:37.316352,14.86571757,.0067671,97.8890,96.3978,105.6781,255.1914,0,U,39441,999,67455,.31498E-3,.2852E-4,0
FUNCUBE-1 (AO-73),2013-066AE,2026-06-06T04:25:51.816864,15.09358417,.0034656,97.8278,128.4023,239.5624,120.2179,0,U,39444,999,67800,.57636E-3,.9267E-4,0
UWE-3,2013-066AG,2026-06-06T15:42:38.626272,14.96941234,.0049031,97.8693,113.6587,356.7161,3.3731,0,U,39446,999,67600,.43622E-3,.5074E-4,0
SMDC ONE 2.4,2013-072H,2026-06-06T15:56:43.265760,15.17983621,.0143809,120.4937,311.4624,7.7809,352.5455,0,U,39469,999,11623,.483E-3,.12602E-3,0
COSMOS 2488 (RODNIK-S 7),2013-076A,2026-06-06T19:33:22.603680,12.42905498,.0020702,82.4830,175.1575,116.6749,243.6454,0,U,39483,999,56460,.89641E-4,.22E-6,0
COSMOS 2489 (RODNIK-S 8),2013-076B,2026-06-06T20:53:15.971136,12.42879559,.002254,82.4867,176.4983,116.6416,243.6975,0,U,39484,999,56466,.23894E-3,.43E-6,0
COSMOS 2490 (RODNIK-S 9),2013-076C,2026-06-06T20:12:45.795744,12.42877955,.0022492,82.4813,174.5877,131.6888,228.6120,0,U,39485,999,56459,.45505E-3,.73E-6,0
KAZEOSAT 1,2014-024A,2026-06-06T19:43:52.959936,14.42075882,.0001504,98.3203,230.5268,75.2761,284.8596,0,U,39731,999,63706,.64036E-4,.168E-5,0
COSMOS 2496 (RODNIK-S 10),2014-028A,2026-06-06T19:11:37.649184,12.42878380,.0021202,82.4446,115.2372,100.3182,260.0289,0,U,39761,999,54622,.60135E-3,.93E-6,0
COSMOS 2497 (RODNIK-S 11),2014-028B,2026-06-06T20:32:08.222208,12.42894053,.0021802,82.4493,116.8880,95.4253,264.9314,0,U,39762,999,54623,.7477E-3,.114E-5,0
COSMOS 2498 (RODNIK-S 12),2014-028C,2026-06-06T20:00:54.794592,12.42980002,.0022521,82.4454,115.3931,95.1126,265.2525,0,U,39763,999,54626,.52558E-3,.83E-6,0
HODOYOSHI-4,2014-033B,2026-06-06T19:31:27.676992,14.88107573,.0023371,97.5455,343.1370,344.1705,15.8779,0,U,40011,999,64726,.24076E-3,.2174E-4,0
UNISAT-6,2014-033C,2026-06-06T17:04:55.309728,14.88189807,.0046479,97.7873,310.6096,102.8244,257.8172,0,U,40012,999,64460,.45042E-3,.4181E-4,0
DEIMOS-2,2014-033D,2026-06-06T19:11:49.074720,14.93696937,.0001999,97.5835,32.6528,61.3078,298.8343,0,U,40013,999,63617,.20463E-3,.211E-4,0
BUGSAT-1 (TITA),2014-033E,2026-06-06T20:50:27.290688,15.15474218,.002725,98.0418,249.8146,214.1596,145.7883,0,U,40014,999,65427,.41048E-3,.7766E-4,0
SAUDISAT 4,2014-033G,2026-06-06T15:16:08.392800,14.79530218,.0046185,97.7572,304.1370,107.2479,253.3795,0,U,40016,999,64451,.1214E-3,.873E-5,0
APRIZESAT 9,2014-033J,2026-06-05T20:56:27.875040,14.74199706,.0064978,97.9048,290.3486,235.9898,123.5128,0,U,40018,999,64189,.11882E-3,.758E-5,0
BRITE-CA1 (TORONTO),2014-033L,2026-06-06T15:24:50.450112,14.72662532,.0077539,97.9728,286.7655,311.3532,48.1023,0,U,40020,999,64066,.1274E-3,.796E-5,0
DUCHIFAT-1,2014-033M,2026-06-06T03:23:45.709728,15.62418709,.00044927,98.0474,214.7704,136.7008,223.4602,0,U,40021,999,65402,.14667952E-2,.131825E-2,0
NANOSATC-BR1,2014-033Q,2026-06-06T14:51:56.552256,15.31117398,.000329,98.0730,189.0736,194.1047,166.0100,0,U,40024,999,65236,.677E-3,.203E-3,0
